start=new Date('2023-03-13T00:00:00.000Z').valueOf();
sats=[{"OBJECT_ID":"2021-040BH","FILE":"3858534","COUNTRY_CODE":"US","NORAD_CAT_ID":"48483","GP_ID":"227930410","LAUNCH_DATE":"2021-05-09","INCLINATION":"53.0541","OBJECT_NAME":"STARLINK-2531","PERIAPSIS":"546.122","RCS_SIZE":"LARGE","SITE":"AFETR","CLASSIFICATION_TYPE":"U","ARG_OF_PERICENTER":"97.8075","APOAPSIS":"548.274","TIME_SYSTEM":"UTC","RA_OF_ASC_NODE":"69.1829","REF_FRAME":"TEME","EPOCH":"2023-03-12T11:44:09.650112","MEAN_ELEMENT_THEORY":"SGP4","MEAN_MOTION_DDOT":"0.0000000000000","EPHEMERIS_TYPE":"0","MEAN_MOTION_DOT":"0.00013025","ELEMENT_SET_NO":"999","REV_AT_EPOCH":"10157","PERIOD":"95.592","MEAN_MOTION":"15.06405118","CENTER_NAME":"EARTH","OBJECT_TYPE":"PAYLOAD","TLE_LINE1":"1 48483U 21040BH  23071.48900058  .00013025  00000-0  89156-3 0  9994","BSTAR":"0.00089156000000","MEAN_ANOMALY":"262.3090","ECCENTRICITY":"0.00015540","TLE_LINE2":"2 48483  53.0541  69.1829 0001554  97.8075 262.3090 15.06405118101570","DECAY_DATE":null,"SEMIMAJOR_AXIS":"6925.333"},{"APOAPSIS":"548.693","TIME_SYSTEM":"UTC","ARG_OF_PERICENTER":"114.8526","PERIAPSIS":"545.816","SITE":"AFETR","CLASSIFICATION_TYPE":"U","RCS_SIZE":"LARGE","GP_ID":"227930675","OBJECT_NAME":"STARLINK-2696","INCLINATION":"53.0544","LAUNCH_DATE":"2021-05-09","NORAD_CAT_ID":"48484","COUNTRY_CODE":"US","FILE":"3858534","OBJECT_ID":"2021-040BJ","TLE_LINE2":"2 48484  53.0544  70.0946 0002077 114.8526 245.2680 15.06386676101557","SEMIMAJOR_AXIS":"6925.389","DECAY_DATE":null,"ECCENTRICITY":"0.00020770","MEAN_ANOMALY":"245.2680","OBJECT_TYPE":"PAYLOAD","CENTER_NAME":"EARTH","BSTAR":"0.00005196500000","TLE_LINE1":"1 48484U 21040BJ  23071.36741002  .00000492  00000-0  51965-4 0  9996","REV_AT_EPOCH":"10155","MEAN_MOTION":"15.06386676","PERIOD":"95.593","MEAN_MOTION_DOT":"0.00000492","EPHEMERIS_TYPE":"0","ELEMENT_SET_NO":"999","MEAN_MOTION_DDOT":"0.0000000000000","MEAN_ELEMENT_THEORY":"SGP4","REF_FRAME":"TEME","RA_OF_ASC_NODE":"70.0946","EPOCH":"2023-03-12T08:49:04.225728"},{"ELEMENT_SET_NO":"999","EPHEMERIS_TYPE":"0","MEAN_MOTION_DOT":"0.00026022","REF_FRAME":"TEME","EPOCH":"2023-03-12T13:30:19.936800","RA_OF_ASC_NODE":"68.8563","MEAN_MOTION_DDOT":"0.0000000000000","MEAN_ELEMENT_THEORY":"SGP4","MEAN_ANOMALY":"267.1392","ECCENTRICITY":"0.00013010","DECAY_DATE":null,"SEMIMAJOR_AXIS":"6925.394","TLE_LINE2":"2 48485  53.0531  68.8563 0001301  92.9746 267.1392 15.06385281101580","PERIOD":"95.593","MEAN_MOTION":"15.06385281","REV_AT_EPOCH":"10158","TLE_LINE1":"1 48485U 21040BK  23071.56273075  .00026022  00000-0  17601-2 0  9993","BSTAR":"0.00176010000000","CENTER_NAME":"EARTH","OBJECT_TYPE":"PAYLOAD","NORAD_CAT_ID":"48485","OBJECT_ID":"2021-040BK","FILE":"3858534","COUNTRY_CODE":"US","ARG_OF_PERICENTER":"92.9746","TIME_SYSTEM":"UTC","APOAPSIS":"548.160","LAUNCH_DATE":"2021-05-09","OBJECT_NAME":"STARLINK-2500","INCLINATION":"53.0531","GP_ID":"227929431","RCS_SIZE":"LARGE","SITE":"AFETR","CLASSIFICATION_TYPE":"U","PERIAPSIS":"546.358"},{"NORAD_CAT_ID":"48486","COUNTRY_CODE":"US","FILE":"3858534","OBJECT_ID":"2021-040BL","APOAPSIS":"548.013","TIME_SYSTEM":"UTC","ARG_OF_PERICENTER":"102.1873","PERIAPSIS":"546.358","SITE":"AFETR","CLASSIFICATION_TYPE":"U","RCS_SIZE":"LARGE","GP_ID":"227930182","INCLINATION":"53.0532","OBJECT_NAME":"STARLINK-2496","LAUNCH_DATE":"2021-05-09","MEAN_MOTION_DOT":"0.00005774","EPHEMERIS_TYPE":"0","ELEMENT_SET_NO":"999","MEAN_ELEMENT_THEORY":"SGP4","MEAN_MOTION_DDOT":"0.0000000000000","EPOCH":"2023-03-12T11:58:43.028832","REF_FRAME":"TEME","RA_OF_ASC_NODE":"69.1280","TLE_LINE2":"2 48486  53.0532  69.1280 0001195 102.1873 257.9250 15.06409141101579","SEMIMAJOR_AXIS":"6925.321","DECAY_DATE":null,"ECCENTRICITY":"0.00011950","MEAN_ANOMALY":"257.9250","OBJECT_TYPE":"PAYLOAD","CENTER_NAME":"EARTH","BSTAR":"0.00040609000000","TLE_LINE1":"1 48486U 21040BL  23071.49910913  .00005774  00000-0  40609-3 0  9991","REV_AT_EPOCH":"10157","MEAN_MOTION":"15.06409141","PERIOD":"95.592"},{"COUNTRY_CODE":"US","FILE":"3858534","OBJECT_ID":"2021-040BM","NORAD_CAT_ID":"48487","SITE":"AFETR","CLASSIFICATION_TYPE":"U","RCS_SIZE":"LARGE","PERIAPSIS":"546.174","INCLINATION":"53.0564","OBJECT_NAME":"STARLINK-2494","LAUNCH_DATE":"2021-05-09","GP_ID":"227930911","TIME_SYSTEM":"UTC","APOAPSIS":"548.174","ARG_OF_PERICENTER":"78.8074","MEAN_MOTION_DDOT":"0.0000000000000","MEAN_ELEMENT_THEORY":"SGP4","RA_OF_ASC_NODE":"69.1163","REF_FRAME":"TEME","EPOCH":"2023-03-12T12:05:23.170560","ELEMENT_SET_NO":"999","MEAN_MOTION_DOT":"0.00009524","EPHEMERIS_TYPE":"0","BSTAR":"0.00065717000000","TLE_LINE1":"1 48487U 21040BM  23071.50374040  .00009524  00000-0  65717-3 0  9993","OBJECT_TYPE":"PAYLOAD","CENTER_NAME":"EARTH","MEAN_MOTION":"15.06413041","PERIOD":"95.591","REV_AT_EPOCH":"10158","SEMIMAJOR_AXIS":"6925.309","DECAY_DATE":null,"TLE_LINE2":"2 48487  53.0564  69.1163 0001444  78.8074 281.3077 15.06413041101587","ECCENTRICITY":"0.00014440","MEAN_ANOMALY":"281.3077"},{"DECAY_DATE":null,"SEMIMAJOR_AXIS":"6925.285","TLE_LINE2":"2 48553  53.0560   0.4126 0001500 101.6720 258.4437 15.06420813100848","MEAN_ANOMALY":"258.4437","ECCENTRICITY":"0.00015000","TLE_LINE1":"1 48553U 21041A   23071.21532155  .00018579  00000-0  12622-2 0  9995","BSTAR":"0.00126220000000","CENTER_NAME":"EARTH","OBJECT_TYPE":"PAYLOAD","PERIOD":"95.591","MEAN_MOTION":"15.06420813","REV_AT_EPOCH":"10084","ELEMENT_SET_NO":"999","MEAN_MOTION_DOT":"0.00018579","EPHEMERIS_TYPE":"0","MEAN_ELEMENT_THEORY":"SGP4","MEAN_MOTION_DDOT":"0.0000000000000","REF_FRAME":"TEME","RA_OF_ASC_NODE":"0.4126","EPOCH":"2023-03-12T05:10:03.781920","TIME_SYSTEM":"UTC","APOAPSIS":"548.189","ARG_OF_PERICENTER":"101.6720","RCS_SIZE":"LARGE","SITE":"AFETR","CLASSIFICATION_TYPE":"U","PERIAPSIS":"546.111","LAUNCH_DATE":"2021-05-15","OBJECT_NAME":"STARLINK-2063","INCLINATION":"53.0560","GP_ID":"227935615","NORAD_CAT_ID":"48553","FILE":"3858558","COUNTRY_CODE":"US","OBJECT_ID":"2021-041A"},{"NORAD_CAT_ID":"48554","COUNTRY_CODE":"US","FILE":"3858743","OBJECT_ID":"2021-041B","APOAPSIS":"548.136","TIME_SYSTEM":"UTC","ARG_OF_PERICENTER":"95.3353","PERIAPSIS":"546.211","CLASSIFICATION_TYPE":"U","SITE":"AFETR","RCS_SIZE":"LARGE","GP_ID":"227961907","OBJECT_NAME":"STARLINK-2139","INCLINATION":"53.0557","LAUNCH_DATE":"2021-05-15","MEAN_MOTION_DOT":"0.00008321","EPHEMERIS_TYPE":"0","ELEMENT_SET_NO":"999","MEAN_MOTION_DDOT":"0.0000000000000","MEAN_ELEMENT_THEORY":"SGP4","EPOCH":"2023-03-12T18:04:59.414016","REF_FRAME":"TEME","RA_OF_ASC_NODE":"358.0021","TLE_LINE2":"2 48554  53.0557 358.0021 0001390  95.3353 264.7794 15.06412987100477","SEMIMAJOR_AXIS":"6925.309","DECAY_DATE":null,"ECCENTRICITY":"0.00013900","MEAN_ANOMALY":"264.7794","OBJECT_TYPE":"PAYLOAD","CENTER_NAME":"EARTH","BSTAR":"0.00057667000000","TLE_LINE1":"1 48554U 21041B   23071.75346544  .00008321  00000-0  57667-3 0  9993","REV_AT_EPOCH":"10047","MEAN_MOTION":"15.06412987","PERIOD":"95.591"},{"EPHEMERIS_TYPE":"0","MEAN_MOTION_DOT":"0.00019172","ELEMENT_SET_NO":"999","MEAN_ELEMENT_THEORY":"SGP4","MEAN_MOTION_DDOT":"0.0000000000000","EPOCH":"2023-03-12T06:01:48.571104","REF_FRAME":"TEME","RA_OF_ASC_NODE":"10.2585","TLE_LINE2":"2 48555  53.0551  10.2585 0001470 100.9992 259.1163 15.06428585100250","SEMIMAJOR_AXIS":"6925.261","DECAY_DATE":null,"ECCENTRICITY":"0.00014700","MEAN_ANOMALY":"259.1163","OBJECT_TYPE":"PAYLOAD","CENTER_NAME":"EARTH","BSTAR":"0.00130150000000","TLE_LINE1":"1 48555U 21041C   23071.25125661  .00019172  00000-0  13015-2 0  9998","REV_AT_EPOCH":"10025","PERIOD":"95.590","MEAN_MOTION":"15.06428585","NORAD_CAT_ID":"48555","COUNTRY_CODE":"US","FILE":"3858534","OBJECT_ID":"2021-041C","APOAPSIS":"548.144","TIME_SYSTEM":"UTC","ARG_OF_PERICENTER":"100.9992","PERIAPSIS":"546.108","SITE":"AFETR","CLASSIFICATION_TYPE":"U","RCS_SIZE":"LARGE","GP_ID":"227930918","OBJECT_NAME":"STARLINK-2145","INCLINATION":"53.0551","LAUNCH_DATE":"2021-05-15"},{"RA_OF_ASC_NODE":"7.6245","REF_FRAME":"TEME","EPOCH":"2023-03-12T20:05:44.639808","MEAN_ELEMENT_THEORY":"SGP4","MEAN_MOTION_DDOT":"0.0000000000000","ELEMENT_SET_NO":"999","EPHEMERIS_TYPE":"0","MEAN_MOTION_DOT":"0.00004982","MEAN_MOTION":"15.06398388","PERIOD":"95.592","REV_AT_EPOCH":"10034","TLE_LINE1":"1 48556U 21041D   23071.83732222  .00004982  00000-0  35314-3 0  9990","BSTAR":"0.00035314000000","CENTER_NAME":"EARTH","OBJECT_TYPE":"PAYLOAD","MEAN_ANOMALY":"249.3117","ECCENTRICITY":"0.00017760","DECAY_DATE":null,"SEMIMAJOR_AXIS":"6925.353","TLE_LINE2":"2 48556  53.0541   7.6245 0001776 110.8062 249.3117 15.06398388100347","OBJECT_ID":"2021-041D","FILE":"3858743","COUNTRY_CODE":"US","NORAD_CAT_ID":"48556","LAUNCH_DATE":"2021-05-15","INCLINATION":"53.0541","OBJECT_NAME":"STARLINK-2151","GP_ID":"227960906","RCS_SIZE":"LARGE","SITE":"AFETR","CLASSIFICATION_TYPE":"U","PERIAPSIS":"545.989","ARG_OF_PERICENTER":"110.8062","TIME_SYSTEM":"UTC","APOAPSIS":"548.448"},{"NORAD_CAT_ID":"48557","FILE":"3858743","COUNTRY_CODE":"US","OBJECT_ID":"2021-041E","APOAPSIS":"548.073","TIME_SYSTEM":"UTC","ARG_OF_PERICENTER":"111.5528","PERIAPSIS":"546.323","RCS_SIZE":"LARGE","SITE":"AFETR","CLASSIFICATION_TYPE":"U","GP_ID":"227961156","LAUNCH_DATE":"2021-05-15","INCLINATION":"53.0549","OBJECT_NAME":"STARLINK-2155","MEAN_MOTION_DOT":"0.00007809","EPHEMERIS_TYPE":"0","ELEMENT_SET_NO":"999","MEAN_MOTION_DDOT":"0.0000000000000","MEAN_ELEMENT_THEORY":"SGP4","REF_FRAME":"TEME","EPOCH":"2023-03-12T18:36:50.269248","RA_OF_ASC_NODE":"357.9014","TLE_LINE2":"2 48557  53.0549 357.9014 0001263 111.5528 248.5595 15.06405054100471","DECAY_DATE":null,"SEMIMAJOR_AXIS":"6925.333","MEAN_ANOMALY":"248.5595","ECCENTRICITY":"0.00012630","CENTER_NAME":"EARTH","OBJECT_TYPE":"PAYLOAD","TLE_LINE1":"1 48557U 21041E   23071.77558182  .00007809  00000-0  54245-3 0  9990","BSTAR":"0.00054245000000","REV_AT_EPOCH":"10047","MEAN_MOTION":"15.06405054","PERIOD":"95.592"}];
